start=new Date('2022-02-15T00:00:00.000Z').valueOf();
sats=[{"BSTAR":"0.00134480000000","FILE":"3300715","OBJECT_NAME":"STARLINK-1379","OBJECT_TYPE":"PAYLOAD","CENTER_NAME":"EARTH","PERIOD":"88.787","SEMIMAJOR_AXIS":"6592.670","MEAN_MOTION_DDOT":"0.0000118660000","REV_AT_EPOCH":"10148","LAUNCH_DATE":"2020-04-22","TLE_LINE1":"1 45549U 20025U   22045.87166958  .03110562  11866-4  13448-2 0  9995","PERIAPSIS":"209.310","MEAN_MOTION_DOT":"0.03110562","ECCENTRICITY":"0.00079250","OBJECT_ID":"2020-025U","RCS_SIZE":"LARGE","NORAD_CAT_ID":"45549","CLASSIFICATION_TYPE":"U","MEAN_ANOMALY":"80.3145","EPOCH":"2022-02-14T20:55:12.251712","TIME_SYSTEM":"UTC","COUNTRY_CODE":"US","EPHEMERIS_TYPE":"0","TLE_LINE2":"2 45549  53.0366 242.8552 0007925 279.7325  80.3145 16.21850327101488","RA_OF_ASC_NODE":"242.8552","GP_ID":"195944145","DECAY_DATE":null,"REF_FRAME":"TEME","MEAN_MOTION":"16.21850327","SITE":"AFETR","APOAPSIS":"219.760","ELEMENT_SET_NO":"999","ARG_OF_PERICENTER":"279.7325","MEAN_ELEMENT_THEORY":"SGP4","INCLINATION":"53.0366"},{"SITE":"AFETR","APOAPSIS":"548.173","MEAN_MOTION":"15.06408608","REF_FRAME":"TEME","DECAY_DATE":null,"TLE_LINE2":"2 45550  53.0533 288.4329 0001424  77.5039 282.6109 15.06408608101411","RA_OF_ASC_NODE":"288.4329","GP_ID":"195964598","MEAN_ELEMENT_THEORY":"SGP4","INCLINATION":"53.0533","ARG_OF_PERICENTER":"77.5039","ELEMENT_SET_NO":"999","CLASSIFICATION_TYPE":"U","NORAD_CAT_ID":"45550","EPOCH":"2022-02-14T17:15:25.281504","EPHEMERIS_TYPE":"0","COUNTRY_CODE":"US","TIME_SYSTEM":"UTC","MEAN_ANOMALY":"282.6109","MEAN_MOTION_DOT":"0.00013166","PERIAPSIS":"546.201","TLE_LINE1":"1 45550U 20025V   22045.71904261  .00013166  00000-0  90094-3 0  9993","LAUNCH_DATE":"2020-04-22","REV_AT_EPOCH":"10141","OBJECT_ID":"2020-025V","RCS_SIZE":"LARGE","ECCENTRICITY":"0.00014240","BSTAR":"0.00090094000000","MEAN_MOTION_DDOT":"0.0000000000000","CENTER_NAME":"EARTH","OBJECT_TYPE":"PAYLOAD","SEMIMAJOR_AXIS":"6925.322","PERIOD":"95.592","OBJECT_NAME":"STARLINK-1390","FILE":"3300727"},{"MEAN_MOTION_DOT":"0.00003530","PERIAPSIS":"546.094","TLE_LINE1":"1 45551U 20025W   22045.78819605  .00003530  00000-0  25604-3 0  9997","LAUNCH_DATE":"2020-04-22","REV_AT_EPOCH":"10171","RCS_SIZE":"LARGE","OBJECT_ID":"2020-025W","ECCENTRICITY":"0.00017810","BSTAR":"0.00025604000000","MEAN_MOTION_DDOT":"0.0000000000000","PERIOD":"95.595","SEMIMAJOR_AXIS":"6925.463","OBJECT_TYPE":"PAYLOAD","CENTER_NAME":"EARTH","OBJECT_NAME":"STARLINK-1294","FILE":"3300727","APOAPSIS":"548.561","SITE":"AFETR","REF_FRAME":"TEME","MEAN_MOTION":"15.06362775","DECAY_DATE":null,"RA_OF_ASC_NODE":"268.1126","GP_ID":"195964848","TLE_LINE2":"2 45551  53.0531 268.1126 0001781  78.7300 281.3889 15.06362775101718","INCLINATION":"53.0531","MEAN_ELEMENT_THEORY":"SGP4","ARG_OF_PERICENTER":"78.7300","ELEMENT_SET_NO":"999","CLASSIFICATION_TYPE":"U","NORAD_CAT_ID":"45551","TIME_SYSTEM":"UTC","COUNTRY_CODE":"US","EPHEMERIS_TYPE":"0","EPOCH":"2022-02-14T18:55:00.138720","MEAN_ANOMALY":"281.3889"},{"SEMIMAJOR_AXIS":"6811.761","PERIOD":"93.250","OBJECT_TYPE":"PAYLOAD","CENTER_NAME":"EARTH","MEAN_MOTION_DDOT":"0.0000000000000","FILE":"3300727","OBJECT_NAME":"STARLINK-1322","BSTAR":"-0.00002899500000","ECCENTRICITY":"0.00013370","RCS_SIZE":"LARGE","OBJECT_ID":"2020-025X","PERIAPSIS":"432.715","MEAN_MOTION_DOT":"-0.00001775","LAUNCH_DATE":"2020-04-22","REV_AT_EPOCH":"10216","TLE_LINE1":"1 45552U 20025X   22045.81347182 -.00001775  00000-0 -28995-4 0  9996","MEAN_ANOMALY":"249.8869","TIME_SYSTEM":"UTC","COUNTRY_CODE":"US","EPHEMERIS_TYPE":"0","EPOCH":"2022-02-14T19:31:23.965248","CLASSIFICATION_TYPE":"U","NORAD_CAT_ID":"45552","ARG_OF_PERICENTER":"110.2281","INCLINATION":"53.0536","MEAN_ELEMENT_THEORY":"SGP4","ELEMENT_SET_NO":"999","MEAN_MOTION":"15.44236111","REF_FRAME":"TEME","APOAPSIS":"434.536","SITE":"AFETR","GP_ID":"195965098","RA_OF_ASC_NODE":"235.9426","TLE_LINE2":"2 45552  53.0536 235.9426 0001337 110.2281 249.8869 15.44236111102169","DECAY_DATE":null},{"ELEMENT_SET_NO":"999","ARG_OF_PERICENTER":"65.8510","INCLINATION":"53.0516","MEAN_ELEMENT_THEORY":"SGP4","RA_OF_ASC_NODE":"268.0713","GP_ID":"195965348","TLE_LINE2":"2 45553  53.0516 268.0713 0001651  65.8510 294.2651 15.06393854100429","DECAY_DATE":null,"REF_FRAME":"TEME","MEAN_MOTION":"15.06393854","APOAPSIS":"548.376","SITE":"AFETR","MEAN_ANOMALY":"294.2651","COUNTRY_CODE":"US","TIME_SYSTEM":"UTC","EPHEMERIS_TYPE":"0","EPOCH":"2022-02-14T19:10:54.324768","NORAD_CAT_ID":"45553","CLASSIFICATION_TYPE":"U","ECCENTRICITY":"0.00016510","RCS_SIZE":"LARGE","OBJECT_ID":"2020-025Y","LAUNCH_DATE":"2020-04-22","REV_AT_EPOCH":"10042","TLE_LINE1":"1 45553U 20025Y   22045.79923987  .00002994  00000-0  21987-3 0  9992","PERIAPSIS":"546.089","MEAN_MOTION_DOT":"0.00002994","FILE":"3300727","OBJECT_NAME":"STARLINK-1323","PERIOD":"95.593","SEMIMAJOR_AXIS":"6925.367","OBJECT_TYPE":"PAYLOAD","CENTER_NAME":"EARTH","MEAN_MOTION_DDOT":"0.0000000000000","BSTAR":"0.00021987000000"},{"ELEMENT_SET_NO":"999","ARG_OF_PERICENTER":"72.4969","INCLINATION":"53.0522","MEAN_ELEMENT_THEORY":"SGP4","GP_ID":"195964098","RA_OF_ASC_NODE":"268.0937","TLE_LINE2":"2 45554  53.0522 268.0937 0001906  72.4969 287.6228 15.06386528101719","DECAY_DATE":null,"MEAN_MOTION":"15.06386528","REF_FRAME":"TEME","APOAPSIS":"548.575","SITE":"AFETR","MEAN_ANOMALY":"287.6228","COUNTRY_CODE":"US","EPHEMERIS_TYPE":"0","TIME_SYSTEM":"UTC","EPOCH":"2022-02-14T19:00:18.005184","NORAD_CAT_ID":"45554","CLASSIFICATION_TYPE":"U","ECCENTRICITY":"0.00019060","RCS_SIZE":"LARGE","OBJECT_ID":"2020-025Z","REV_AT_EPOCH":"10171","LAUNCH_DATE":"2020-04-22","TLE_LINE1":"1 45554U 20025Z   22045.79187506  .00002566  00000-0  19119-3 0  9991","PERIAPSIS":"545.935","MEAN_MOTION_DOT":"0.00002566","FILE":"3300727","OBJECT_NAME":"STARLINK-1325","SEMIMAJOR_AXIS":"6925.390","PERIOD":"95.593","OBJECT_TYPE":"PAYLOAD","CENTER_NAME":"EARTH","MEAN_MOTION_DDOT":"0.0000000000000","BSTAR":"0.00019119000000"},{"CENTER_NAME":"EARTH","OBJECT_TYPE":"PAYLOAD","SEMIMAJOR_AXIS":"6925.336","PERIOD":"95.592","MEAN_MOTION_DDOT":"0.0000000000000","FILE":"3300727","OBJECT_NAME":"STARLINK-1327","BSTAR":"0.00080817000000","ECCENTRICITY":"0.00014520","OBJECT_ID":"2020-025AA","RCS_SIZE":"LARGE","PERIAPSIS":"546.195","MEAN_MOTION_DOT":"0.00011778","LAUNCH_DATE":"2020-04-22","REV_AT_EPOCH":"10171","TLE_LINE1":"1 45555U 20025AA  22045.82135579  .00011778  00000-0  80817-3 0  9997","MEAN_ANOMALY":"290.1215","EPOCH":"2022-02-14T19:42:45.140256","TIME_SYSTEM":"UTC","COUNTRY_CODE":"US","EPHEMERIS_TYPE":"0","CLASSIFICATION_TYPE":"U","NORAD_CAT_ID":"45555","ARG_OF_PERICENTER":"69.9930","MEAN_ELEMENT_THEORY":"SGP4","INCLINATION":"53.0517","ELEMENT_SET_NO":"999","MEAN_MOTION":"15.06404144","REF_FRAME":"TEME","SITE":"AFETR","APOAPSIS":"548.206","TLE_LINE2":"2 45555  53.0517 267.9615 0001452  69.9930 290.1215 15.06404144101710","GP_ID":"195964348","RA_OF_ASC_NODE":"267.9615","DECAY_DATE":null},{"CLASSIFICATION_TYPE":"U","NORAD_CAT_ID":"45556","MEAN_ANOMALY":"287.9741","EPHEMERIS_TYPE":"0","COUNTRY_CODE":"US","TIME_SYSTEM":"UTC","EPOCH":"2022-02-14T19:05:36.447072","REF_FRAME":"TEME","MEAN_MOTION":"15.06387029","APOAPSIS":"548.291","SITE":"AFETR","GP_ID":"195965599","RA_OF_ASC_NODE":"268.0899","TLE_LINE2":"2 45556  53.0530 268.0899 0001499  72.1411 287.9741 15.06387029101713","DECAY_DATE":null,"ARG_OF_PERICENTER":"72.1411","INCLINATION":"53.0530","MEAN_ELEMENT_THEORY":"SGP4","ELEMENT_SET_NO":"999","BSTAR":"0.00037447000000","PERIOD":"95.593","SEMIMAJOR_AXIS":"6925.388","OBJECT_TYPE":"PAYLOAD","CENTER_NAME":"EARTH","MEAN_MOTION_DDOT":"0.0000000000000","FILE":"3300727","OBJECT_NAME":"STARLINK-1334","PERIAPSIS":"546.215","MEAN_MOTION_DOT":"0.00005299","REV_AT_EPOCH":"10171","LAUNCH_DATE":"2020-04-22","TLE_LINE1":"1 45556U 20025AB  22045.79556073  .00005299  00000-0  37447-3 0  9992","ECCENTRICITY":"0.00014990","RCS_SIZE":"LARGE","OBJECT_ID":"2020-025AB"},{"BSTAR":"-0.00044865000000","MEAN_MOTION_DDOT":"0.0000000000000","CENTER_NAME":"EARTH","OBJECT_TYPE":"PAYLOAD","PERIOD":"95.591","SEMIMAJOR_AXIS":"6925.274","OBJECT_NAME":"STARLINK-1336","FILE":"3300727","MEAN_MOTION_DOT":"-0.00006962","PERIAPSIS":"545.959","TLE_LINE1":"1 45557U 20025AC  22045.80291674 -.00006962  00000-0 -44865-3 0  9990","LAUNCH_DATE":"2020-04-22","REV_AT_EPOCH":"10171","OBJECT_ID":"2020-025AC","RCS_SIZE":"LARGE","ECCENTRICITY":"0.00017050","CLASSIFICATION_TYPE":"U","NORAD_CAT_ID":"45557","EPOCH":"2022-02-14T19:16:12.006336","EPHEMERIS_TYPE":"0","COUNTRY_CODE":"US","TIME_SYSTEM":"UTC","MEAN_ANOMALY":"289.9109","SITE":"AFETR","APOAPSIS":"548.320","MEAN_MOTION":"15.06424205","REF_FRAME":"TEME","DECAY_DATE":null,"TLE_LINE2":"2 45557  53.0528 268.0395 0001705  70.2064 289.9109 15.06424205101713","RA_OF_ASC_NODE":"268.0395","GP_ID":"195965849","MEAN_ELEMENT_THEORY":"SGP4","INCLINATION":"53.0528","ARG_OF_PERICENTER":"70.2064","ELEMENT_SET_NO":"999"},{"CLASSIFICATION_TYPE":"U","NORAD_CAT_ID":"45558","MEAN_ANOMALY":"285.9433","EPOCH":"2022-02-14T18:28:26.678208","EPHEMERIS_TYPE":"0","COUNTRY_CODE":"US","TIME_SYSTEM":"UTC","MEAN_MOTION":"15.06384624","REF_FRAME":"TEME","SITE":"AFETR","APOAPSIS":"548.280","TLE_LINE2":"2 45558  53.0542 268.2020 0001472  74.1718 285.9433 15.06384624101702","RA_OF_ASC_NODE":"268.2020","GP_ID":"195964599","DECAY_DATE":null,"ARG_OF_PERICENTER":"74.1718","MEAN_ELEMENT_THEORY":"SGP4","INCLINATION":"53.0542","ELEMENT_SET_NO":"999","BSTAR":"0.00014281000000","CENTER_NAME":"EARTH","OBJECT_TYPE":"PAYLOAD","SEMIMAJOR_AXIS":"6925.396","PERIOD":"95.593","MEAN_MOTION_DDOT":"0.0000000000000","FILE":"3300727","OBJECT_NAME":"STARLINK-1342","PERIAPSIS":"546.241","MEAN_MOTION_DOT":"0.00001845","LAUNCH_DATE":"2020-04-22","REV_AT_EPOCH":"10170","TLE_LINE1":"1 45558U 20025AD  22045.76975322  .00001845  00000-0  14281-3 0  9997","ECCENTRICITY":"0.00014720","OBJECT_ID":"2020-025AD","RCS_SIZE":"LARGE"}];
